{
  "norad_id": 55156,
  "name": "ONEWEB-0614",
  "history": [
    {
      "epoch": "2026-03-28T19:33:06.682752Z",
      "apogee_km": 1218.9223983888714,
      "perigee_km": 1216.43036393478,
      "latitude_deg": 9.344101823823281e-05,
      "longitude_deg": -82.4526434734427,
      "height_km": 1220.3155983761214,
      "semi_major_axis_km": 7595.813381161825,
      "eccentricity": 0.00016404,
      "inclination_deg": 87.8893,
      "raan_deg": 37.0549,
      "arg_perigee_deg": 78.5542,
      "mean_anomaly_deg": 281.5771,
      "mean_motion_rev_day": 13.11418581
    },
    {
      "epoch": "2026-03-29T02:52:34.741920Z",
      "apogee_km": 1218.9278467983186,
      "perigee_km": 1216.4242668147954,
      "latitude_deg": 1.8640177705780668e-05,
      "longitude_deg": 167.31903565259128,
      "height_km": 1220.3106048344378,
      "semi_major_axis_km": 7595.813056806556,
      "eccentricity": 0.0001648,
      "inclination_deg": 87.8894,
      "raan_deg": 36.9943,
      "arg_perigee_deg": 78.3896,
      "mean_anomaly_deg": 281.7417,
      "mean_motion_rev_day": 13.11418665
    },
    {
      "epoch": "2026-03-30T02:40:51.294720Z",
      "apogee_km": 1218.9223126578654,
      "perigee_km": 1216.452150617738,
      "latitude_deg": -5.7617928829469413e-05,
      "longitude_deg": 169.07524333137394,
      "height_km": 1220.3326209398888,
      "semi_major_axis_km": 7595.824231637802,
      "eccentricity": 0.0001626,
      "inclination_deg": 87.8897,
      "raan_deg": 36.7971,
      "arg_perigee_deg": 78.7414,
      "mean_anomaly_deg": 281.3896,
      "mean_motion_rev_day": 13.11415771
    },
    {
      "epoch": "2026-03-30T02:40:51.295584Z",
      "apogee_km": 1218.9220847831402,
      "perigee_km": 1216.452378492465,
      "latitude_deg": 4.629267377203958e-05,
      "longitude_deg": 169.07524353111825,
      "height_km": 1220.332650272102,
      "semi_major_axis_km": 7595.824231637802,
      "eccentricity": 0.00016257,
      "inclination_deg": 87.8897,
      "raan_deg": 36.7971,
      "arg_perigee_deg": 78.7414,
      "mean_anomaly_deg": 281.3897,
      "mean_motion_rev_day": 13.11415771
    },
    {
      "epoch": "2026-03-30T13:40:03.480672Z",
      "apogee_km": 1218.9310581752952,
      "perigee_km": 1216.4428181696285,
      "latitude_deg": 1.4292976135604484e-05,
      "longitude_deg": 3.7320632084706897,
      "height_km": 1220.328810609409,
      "semi_major_axis_km": 7595.823938172462,
      "eccentricity": 0.00016379,
      "inclination_deg": 87.8896,
      "raan_deg": 36.7059,
      "arg_perigee_deg": 78.6606,
      "mean_anomaly_deg": 281.4706,
      "mean_motion_rev_day": 13.11415847
    },
    {
      "epoch": "2026-03-30T20:59:31.691904Z",
      "apogee_km": 1218.9329274238535,
      "perigee_km": 1216.4437754561868,
      "latitude_deg": 1.368539294120139e-06,
      "longitude_deg": -106.49699036712065,
      "height_km": 1220.3321541797513,
      "semi_major_axis_km": 7595.825351440019,
      "eccentricity": 0.00016385,
      "inclination_deg": 87.8897,
      "raan_deg": 36.6452,
      "arg_perigee_deg": 78.7554,
      "mean_anomaly_deg": 281.3758,
      "mean_motion_rev_day": 13.11415481
    },
    {
      "epoch": "2026-03-31T07:58:43.957344Z",
      "apogee_km": 1218.934038419262,
      "perigee_km": 1216.4442785210376,
      "latitude_deg": -1.6271968849498527e-05,
      "longitude_deg": 88.1597942025385,
      "height_km": 1220.3372626748778,
      "semi_major_axis_km": 7595.8261584701495,
      "eccentricity": 0.00016389,
      "inclination_deg": 87.8898,
      "raan_deg": 36.5543,
      "arg_perigee_deg": 78.9599,
      "mean_anomaly_deg": 281.1713,
      "mean_motion_rev_day": 13.11415272
    },
    {
      "epoch": "2026-04-01T13:16:36.841152Z",
      "apogee_km": 1218.9347412608304,
      "perigee_km": 1216.4463481571838,
      "latitude_deg": -3.188097608327214e-05,
      "longitude_deg": 7.243618988334608,
      "height_km": 1220.3475902966943,
      "semi_major_axis_km": 7595.827544709007,
      "eccentricity": 0.0001638,
      "inclination_deg": 87.8899,
      "raan_deg": 36.3117,
      "arg_perigee_deg": 79.3729,
      "mean_anomaly_deg": 280.7583,
      "mean_motion_rev_day": 13.11414913
    },
    {
      "epoch": "2026-04-02T13:04:53.658336Z",
      "apogee_km": 1218.9248034688435,
      "perigee_km": 1216.4601087269275,
      "latitude_deg": -4.640911995726964e-05,
      "longitude_deg": 8.998724669426755,
      "height_km": 1220.3482896443486,
      "semi_major_axis_km": 7595.829456097885,
      "eccentricity": 0.00016224,
      "inclination_deg": 87.8898,
      "raan_deg": 36.1145,
      "arg_perigee_deg": 79.2108,
      "mean_anomaly_deg": 280.9202,
      "mean_motion_rev_day": 13.11414418
    },
    {
      "epoch": "2026-04-03T18:22:46.689888Z",
      "apogee_km": 1218.9268324527875,
      "perigee_km": 1216.4581878619856,
      "latitude_deg": 8.48825644836735e-06,
      "longitude_deg": -71.91816660469304,
      "height_km": 1220.3535908217586,
      "semi_major_axis_km": 7595.829510157386,
      "eccentricity": 0.0001625,
      "inclination_deg": 87.89,
      "raan_deg": 35.8718,
      "arg_perigee_deg": 79.4767,
      "mean_anomaly_deg": 280.6544,
      "mean_motion_rev_day": 13.11414404
    },
    {
      "epoch": "2026-04-04T05:21:59.078016Z",
      "apogee_km": 1218.923389859533,
      "perigee_km": 1216.461885307178,
      "latitude_deg": -2.6340708727537166e-05,
      "longitude_deg": 122.73800389359707,
      "height_km": 1220.3500432148376,
      "semi_major_axis_km": 7595.829637583355,
      "eccentricity": 0.00016203,
      "inclination_deg": 87.8899,
      "raan_deg": 35.7808,
      "arg_perigee_deg": 79.2711,
      "mean_anomaly_deg": 280.8599,
      "mean_motion_rev_day": 13.11414371
    },
    {
      "epoch": "2026-04-05T08:49:59.971008Z",
      "apogee_km": 1218.9229651956712,
      "perigee_km": 1216.4569040230808,
      "latitude_deg": -7.9346331866796e-05,
      "longitude_deg": 69.37875364926316,
      "height_km": 1220.3535655416485,
      "semi_major_axis_km": 7595.826934609376,
      "eccentricity": 0.00016233,
      "inclination_deg": 87.8905,
      "raan_deg": 35.5533,
      "arg_perigee_deg": 79.5851,
      "mean_anomaly_deg": 280.5459,
      "mean_motion_rev_day": 13.11415071
    },
    {
      "epoch": "2026-04-05T19:49:12.335808Z",
      "apogee_km": 1218.9227940165865,
      "perigee_km": 1216.455669656486,
      "latitude_deg": 1.539277082166205e-05,
      "longitude_deg": -95.96517422739993,
      "height_km": 1220.318893915186,
      "semi_major_axis_km": 7595.826231836536,
      "eccentricity": 0.0001624,
      "inclination_deg": 87.8908,
      "raan_deg": 35.4621,
      "arg_perigee_deg": 77.9813,
      "mean_anomaly_deg": 282.1497,
      "mean_motion_rev_day": 13.11415253
    },
    {
      "epoch": "2026-04-06T04:58:32.715840Z",
      "apogee_km": 1218.926029058408,
      "perigee_km": 1216.4601187832104,
      "latitude_deg": 6.482964950283143e-06,
      "longitude_deg": 126.24829817847967,
      "height_km": 1220.3624194974304,
      "semi_major_axis_km": 7595.830073920809,
      "eccentricity": 0.00016232,
      "inclination_deg": 87.8907,
      "raan_deg": 35.3865,
      "arg_perigee_deg": 79.855,
      "mean_anomaly_deg": 280.2761,
      "mean_motion_rev_day": 13.11414258
    },
    {
      "epoch": "2026-04-07T13:56:09.533760Z",
      "apogee_km": 1218.9349436315633,
      "perigee_km": 1216.4389558816738,
      "latitude_deg": -4.6288022800076824e-05,
      "longitude_deg": -9.781643856852433,
      "height_km": 1220.3645971497901,
      "semi_major_axis_km": 7595.823949756618,
      "eccentricity": 0.0001643,
      "inclination_deg": 87.8906,
      "raan_deg": 35.1136,
      "arg_perigee_deg": 80.3666,
      "mean_anomaly_deg": 279.7647,
      "mean_motion_rev_day": 13.11415844
    },
    {
      "epoch": "2026-04-07T13:56:09.534624Z",
      "apogee_km": 1218.9348676733243,
      "perigee_km": 1216.4390318399137,
      "latitude_deg": -4.5152706495150614e-05,
      "longitude_deg": -9.781647425101413,
      "height_km": 1220.3646098631377,
      "semi_major_axis_km": 7595.823949756618,
      "eccentricity": 0.00016429,
      "inclination_deg": 87.8906,
      "raan_deg": 35.1136,
      "arg_perigee_deg": 80.3666,
      "mean_anomaly_deg": 279.7647,
      "mean_motion_rev_day": 13.11415844
    },
    {
      "epoch": "2026-04-08T13:44:26.031264Z",
      "apogee_km": 1218.926757108692,
      "perigee_km": 1216.4404931016834,
      "latitude_deg": 7.43110631827657e-05,
      "longitude_deg": -8.025301505858575,
      "height_km": 1220.3834070910425,
      "semi_major_axis_km": 7595.820625105188,
      "eccentricity": 0.00016366,
      "inclination_deg": 87.8908,
      "raan_deg": 34.9163,
      "arg_perigee_deg": 81.3623,
      "mean_anomaly_deg": 278.7691,
      "mean_motion_rev_day": 13.11416705
    }
  ]
}